BRITE-AUSTRIA           
1 39091U 13009F   26115.48133349  .00000171  00000+0  72827-4 0  9993
2 39091  98.3985 296.2244 0010956  42.9850 317.2191 14.36520130689488
UNIBRITE                
1 39092U 13009G   26115.76750590  .00000166  00000+0  71278-4 0  9991
2 39092  98.4024 296.6016 0009830  39.5924 320.5979 14.36391178689465
AIST-2 (RS43)           
1 39133U 13015D   26115.95951314  .00007241  00000+0  28894-3 0  9998
2 39133  64.8692  68.0328 0021392 246.8805 113.0071 15.25712148715937
GAOFEN-1                
1 39150U 13018A   26115.94988388  .00000351  00000+0  57549-4 0  9995
2 39150  97.9110 189.0733 0018482  75.6480 284.6781 14.76514000700530
NEE-01 PEGASO           
1 39151U 13018B   26115.33814251  .00002782  00000+0  27052-3 0  9991
2 39151  98.1148 257.7750 0012067 343.8983  16.1851 14.93393609702816
TURKSAT-3USAT           
1 39152U 13018C   26115.78487735  .00003304  00000+0  29884-3 0  9990
2 39152  97.7899 206.8476 0010642 274.1998  85.8006 14.96083368703259
CUBEBUG-1 (CAPITAN BETO)
1 39153U 13018D   26115.90281891  .00004022  00000+0  35499-3 0  9997
2 39153  98.1604 273.5450 0010668 324.7794  35.2720 14.96962407703247
PROBA-V                 
1 39159U 13021A   26115.89736648  .00000086  00000+0  55918-4 0  9995
2 39159  98.3560  97.0948 0003037 293.6996  66.3865 14.23585503673673
ESTCUBE 1               
1 39161U 13021C   26115.64166953  .00001365  00000+0  18165-3 0  9990
2 39161  97.7336 171.6675 0008345 176.4194 183.7080 14.81235898697246
ARIRANG-5 (KOMPSAT-5)   
1 39227U 13042A   26115.89059047  .00000757  00000+0  58391-4 0  9998
2 39227  97.6214 303.3234 0002698 348.2693  11.8470 15.04499125695991
GONETS-M 5              
1 39249U 13048A   26115.87249869 -.00000100  00000+0 -79139-3 0  9995
2 39249  82.4868  15.9948 0016471 331.2024  28.8145 12.42889902572383
GONETS-M 7              
1 39251U 13048C   26115.91690891 -.00000062  00000+0 -51736-3 0  9998
2 39251  82.4934  18.8614 0017317 332.2113  27.8040 12.42912821572348
FENGYUN 3C              
1 39260U 13052A   26115.95713075  .00000097  00000+0  70236-4 0  9990
2 39260  98.4951  92.2411 0014781 169.1784 190.9711 14.15742414651175
CASSIOPE                
1 39265U 13055A   26115.87091324  .00025698 -40626-6  30038-3 0  9990
2 39265  80.9135 130.0647 0303084 237.9185 119.2295 15.21742236659706
APRIZESAT 7             
1 39416U 13066A   26115.82542282  .00001440  00000+0  14799-3 0  9998
2 39416  97.7667  69.8157 0036660  27.1720 333.1407 14.91431282673421
ZACUBE-1 (TSHEPISOSAT)  
1 39417U 13066B   26115.87574143  .00005869  00000+0  45820-3 0  9993
2 39417  97.8121  77.9322 0044222  67.9289 292.6622 15.00744100672881
