[{"OBJECT_NAME":"BRITE-AUSTRIA","OBJECT_ID":"2013-009F","EPOCH":"2026-04-25T11:33:07.213536","MEAN_MOTION":14.3652013,"ECCENTRICITY":0.00109561,"INCLINATION":98.3985,"RA_OF_ASC_NODE":296.2244,"ARG_OF_PERICENTER":42.985,"MEAN_ANOMALY":317.2191,"EPHEMERIS_TYPE":0,"CLASSIFICATION_TYPE":"U","NORAD_CAT_ID":39091,"ELEMENT_SET_NO":999,"REV_AT_EPOCH":68948,"BSTAR":7.2826733e-5,"MEAN_MOTION_DOT":1.71e-6,"MEAN_MOTION_DDOT":0},{"OBJECT_NAME":"UNIBRITE","OBJECT_ID":"2013-009G","EPOCH":"2026-04-25T18:25:12.509760","MEAN_MOTION":14.36391178,"ECCENTRICITY":0.00098307,"INCLINATION":98.4024,"RA_OF_ASC_NODE":296.6016,"ARG_OF_PERICENTER":39.5924,"MEAN_ANOMALY":320.5979,"EPHEMERIS_TYPE":0,"CLASSIFICATION_TYPE":"U","NORAD_CAT_ID":39092,"ELEMENT_SET_NO":999,"REV_AT_EPOCH":68946,"BSTAR":7.1277866e-5,"MEAN_MOTION_DOT":1.66e-6,"MEAN_MOTION_DDOT":0},{"OBJECT_NAME":"AIST-2 (RS43)","OBJECT_ID":"2013-015D","EPOCH":"2026-04-25T23:01:41.935296","MEAN_MOTION":15.25712148,"ECCENTRICITY":0.0021392,"INCLINATION":64.8692,"RA_OF_ASC_NODE":68.0328,"ARG_OF_PERICENTER":246.8805,"MEAN_ANOMALY":113.0071,"EPHEMERIS_TYPE":0,"CLASSIFICATION_TYPE":"U","NORAD_CAT_ID":39133,"ELEMENT_SET_NO":999,"REV_AT_EPOCH":71593,"BSTAR":0.00028893588,"MEAN_MOTION_DOT":7.241e-5,"MEAN_MOTION_DDOT":0},{"OBJECT_NAME":"GAOFEN-1","OBJECT_ID":"2013-018A","EPOCH":"2026-04-25T22:47:49.967232","MEAN_MOTION":14.76514,"ECCENTRICITY":0.00184821,"INCLINATION":97.911,"RA_OF_ASC_NODE":189.0733,"ARG_OF_PERICENTER":75.648,"MEAN_ANOMALY":284.6781,"EPHEMERIS_TYPE":0,"CLASSIFICATION_TYPE":"U","NORAD_CAT_ID":39150,"ELEMENT_SET_NO":999,"REV_AT_EPOCH":70053,"BSTAR":5.7549018e-5,"MEAN_MOTION_DOT":3.51e-6,"MEAN_MOTION_DDOT":0},{"OBJECT_NAME":"NEE-01 PEGASO","OBJECT_ID":"2013-018B","EPOCH":"2026-04-25T08:06:55.512864","MEAN_MOTION":14.93393609,"ECCENTRICITY":0.00120675,"INCLINATION":98.1148,"RA_OF_ASC_NODE":257.775,"ARG_OF_PERICENTER":343.8983,"MEAN_ANOMALY":16.1851,"EPHEMERIS_TYPE":0,"CLASSIFICATION_TYPE":"U","NORAD_CAT_ID":39151,"ELEMENT_SET_NO":999,"REV_AT_EPOCH":70281,"BSTAR":0.00027052449,"MEAN_MOTION_DOT":2.782e-5,"MEAN_MOTION_DDOT":0},{"OBJECT_NAME":"TURKSAT-3USAT","OBJECT_ID":"2013-018C","EPOCH":"2026-04-25T18:50:13.403040","MEAN_MOTION":14.96083368,"ECCENTRICITY":0.00106424,"INCLINATION":97.7899,"RA_OF_ASC_NODE":206.8476,"ARG_OF_PERICENTER":274.1998,"MEAN_ANOMALY":85.8006,"EPHEMERIS_TYPE":0,"CLASSIFICATION_TYPE":"U","NORAD_CAT_ID":39152,"ELEMENT_SET_NO":999,"REV_AT_EPOCH":70325,"BSTAR":0.00029883751,"MEAN_MOTION_DOT":3.304e-5,"MEAN_MOTION_DDOT":0},{"OBJECT_NAME":"CUBEBUG-1 (CAPITAN BETO)","OBJECT_ID":"2013-018D","EPOCH":"2026-04-25T21:40:03.553824","MEAN_MOTION":14.96962407,"ECCENTRICITY":0.00106681,"INCLINATION":98.1604,"RA_OF_ASC_NODE":273.545,"ARG_OF_PERICENTER":324.7794,"MEAN_ANOMALY":35.272,"EPHEMERIS_TYPE":0,"CLASSIFICATION_TYPE":"U","NORAD_CAT_ID":39153,"ELEMENT_SET_NO":999,"REV_AT_EPOCH":70324,"BSTAR":0.00035498666,"MEAN_MOTION_DOT":4.022e-5,"MEAN_MOTION_DDOT":0},{"OBJECT_NAME":"PROBA-V","OBJECT_ID":"2013-021A","EPOCH":"2026-04-25T21:32:12.463872","MEAN_MOTION":14.23585503,"ECCENTRICITY":0.0003037,"INCLINATION":98.356,"RA_OF_ASC_NODE":97.0948,"ARG_OF_PERICENTER":293.6996,"MEAN_ANOMALY":66.3865,"EPHEMERIS_TYPE":0,"CLASSIFICATION_TYPE":"U","NORAD_CAT_ID":39159,"ELEMENT_SET_NO":999,"REV_AT_EPOCH":67367,"BSTAR":5.5918318e-5,"MEAN_MOTION_DOT":8.6e-7,"MEAN_MOTION_DDOT":0},{"OBJECT_NAME":"ESTCUBE 1","OBJECT_ID":"2013-021C","EPOCH":"2026-04-25T15:24:00.247392","MEAN_MOTION":14.81235898,"ECCENTRICITY":0.00083453,"INCLINATION":97.7336,"RA_OF_ASC_NODE":171.6675,"ARG_OF_PERICENTER":176.4194,"MEAN_ANOMALY":183.708,"EPHEMERIS_TYPE":0,"CLASSIFICATION_TYPE":"U","NORAD_CAT_ID":39161,"ELEMENT_SET_NO":999,"REV_AT_EPOCH":69724,"BSTAR":0.00018165351,"MEAN_MOTION_DOT":1.365e-5,"MEAN_MOTION_DDOT":0},{"OBJECT_NAME":"ARIRANG-5 (KOMPSAT-5)","OBJECT_ID":"2013-042A","EPOCH":"2026-04-25T21:22:27.016608","MEAN_MOTION":15.04499125,"ECCENTRICITY":0.00026983,"INCLINATION":97.6214,"RA_OF_ASC_NODE":303.3234,"ARG_OF_PERICENTER":348.2693,"MEAN_ANOMALY":11.847,"EPHEMERIS_TYPE":0,"CLASSIFICATION_TYPE":"U","NORAD_CAT_ID":39227,"ELEMENT_SET_NO":999,"REV_AT_EPOCH":69599,"BSTAR":5.8390602e-5,"MEAN_MOTION_DOT":7.57e-6,"MEAN_MOTION_DDOT":0},{"OBJECT_NAME":"GONETS-M 5","OBJECT_ID":"2013-048A","EPOCH":"2026-04-25T20:56:23.886816","MEAN_MOTION":12.42889902,"ECCENTRICITY":0.00164714,"INCLINATION":82.4868,"RA_OF_ASC_NODE":15.9948,"ARG_OF_PERICENTER":331.2024,"MEAN_ANOMALY":28.8145,"EPHEMERIS_TYPE":0,"CLASSIFICATION_TYPE":"U","NORAD_CAT_ID":39249,"ELEMENT_SET_NO":999,"REV_AT_EPOCH":57238,"BSTAR":-0.0007913877,"MEAN_MOTION_DOT":-1.0e-6,"MEAN_MOTION_DDOT":0},{"OBJECT_NAME":"GONETS-M 7","OBJECT_ID":"2013-048C","EPOCH":"2026-04-25T22:00:20.929824","MEAN_MOTION":12.42912821,"ECCENTRICITY":0.0017317,"INCLINATION":82.4934,"RA_OF_ASC_NODE":18.8614,"ARG_OF_PERICENTER":332.2113,"MEAN_ANOMALY":27.804,"EPHEMERIS_TYPE":0,"CLASSIFICATION_TYPE":"U","NORAD_CAT_ID":39251,"ELEMENT_SET_NO":999,"REV_AT_EPOCH":57234,"BSTAR":-0.0005173607,"MEAN_MOTION_DOT":-6.2e-7,"MEAN_MOTION_DDOT":0},{"OBJECT_NAME":"FENGYUN 3C","OBJECT_ID":"2013-052A","EPOCH":"2026-04-25T22:58:16.096800","MEAN_MOTION":14.15742414,"ECCENTRICITY":0.00147816,"INCLINATION":98.4951,"RA_OF_ASC_NODE":92.2411,"ARG_OF_PERICENTER":169.1784,"MEAN_ANOMALY":190.9711,"EPHEMERIS_TYPE":0,"CLASSIFICATION_TYPE":"U","NORAD_CAT_ID":39260,"ELEMENT_SET_NO":999,"REV_AT_EPOCH":65117,"BSTAR":7.0236274e-5,"MEAN_MOTION_DOT":9.7e-7,"MEAN_MOTION_DDOT":0},{"OBJECT_NAME":"CASSIOPE","OBJECT_ID":"2013-055A","EPOCH":"2026-04-25T20:54:06.903936","MEAN_MOTION":15.21742236,"ECCENTRICITY":0.0303084,"INCLINATION":80.9135,"RA_OF_ASC_NODE":130.0647,"ARG_OF_PERICENTER":237.9185,"MEAN_ANOMALY":119.2295,"EPHEMERIS_TYPE":0,"CLASSIFICATION_TYPE":"U","NORAD_CAT_ID":39265,"ELEMENT_SET_NO":999,"REV_AT_EPOCH":65970,"BSTAR":0.00030037973,"MEAN_MOTION_DOT":0.00025698,"MEAN_MOTION_DDOT":-4.06259e-7},{"OBJECT_NAME":"APRIZESAT 7","OBJECT_ID":"2013-066A","EPOCH":"2026-04-25T19:48:36.531648","MEAN_MOTION":14.91431282,"ECCENTRICITY":0.00366607,"INCLINATION":97.7667,"RA_OF_ASC_NODE":69.8157,"ARG_OF_PERICENTER":27.172,"MEAN_ANOMALY":333.1407,"EPHEMERIS_TYPE":0,"CLASSIFICATION_TYPE":"U","NORAD_CAT_ID":39416,"ELEMENT_SET_NO":999,"REV_AT_EPOCH":67342,"BSTAR":0.00014798961,"MEAN_MOTION_DOT":1.44e-5,"MEAN_MOTION_DDOT":0},{"OBJECT_NAME":"ZACUBE-1 (TSHEPISOSAT)","OBJECT_ID":"2013-066B","EPOCH":"2026-04-25T21:01:04.059552","MEAN_MOTION":15.007441,"ECCENTRICITY":0.00442227,"INCLINATION":97.8121,"RA_OF_ASC_NODE":77.9322,"ARG_OF_PERICENTER":67.9289,"MEAN_ANOMALY":292.6622,"EPHEMERIS_TYPE":0,"CLASSIFICATION_TYPE":"U","NORAD_CAT_ID":39417,"ELEMENT_SET_NO":999,"REV_AT_EPOCH":67288,"BSTAR":0.00045820185,"MEAN_MOTION_DOT":5.869e-5,"MEAN_MOTION_DDOT":0}]
